HXMT (HUIYAN)
1 42758U 17034A   26106.88282366  .00002909  00000+0  15087-3 0  9992
2 42758  43.0131 164.2520 0030472 117.4012 242.9941 15.17937080488341
SAOCOM 1A
1 43641U 18076A   26106.97146813  .00000395  00000+0  56130-4 0  9999
2 43641  97.8900 294.6045 0001486  89.8833 270.2550 14.82148953407031
SAOCOM 1B
1 46265U 20059A   26106.93520161  .00000470  00000+0  65575-4 0  9993
2 46265  97.8886 293.6629 0001446  85.7600 274.3778 14.82160579304412
CSS (TIANHE)
1 48274U 21035A   26106.76755394  .00015996  00000+0  17822-3 0  9999
2 48274  41.4683 336.1456 0005888 221.8434 138.1956 15.62454512283566
COSMOS 2550
1 48865U 21056A   26106.59854913 -.00000197  00000+0 -14878-6 0  9996
2 48865  67.1399 286.2093 0008412 269.1949  90.8242 15.33827620269271
XRISM
1 57800U 23137A   26106.21022949  .00003075  00000+0  16955-3 0  9993
2 57800  31.0028  40.8937 0007510  56.8343 303.3015 15.11920098143479
ACS3
1 59588U 24077B   26106.77877667  .00040927  00000+0  31594-1 0  9999
2 59588  97.1893  39.3362 0071525 357.4499   2.6291 13.91395048 99495
HTV-X1
1 66174U 25241A   26106.73280671  .00005028  00000+0  16847-3 0  9990
2 66174  51.6355 249.6151 0007554 320.0869  39.9556 15.32663502 26770
H-2A R/B
1 43682U 18084L   26106.88452085  .00010651  00000+0  24258-3 0  9995
2 43682  98.8672 332.4773 0023106 249.0836 110.7934 15.42925134411667
CZ-2C R/B
1 52794U 22058K   26106.53794663  .00025006  00000+0  33203-3 0  9998
2 52794  50.1857 123.1691 0040257   2.8425 357.2768 15.57059349216024
CZ-2C R/B
1 54039U 22132E   26106.57649496  .00027884  00000+0  27901-3 0  9996
2 54039  97.2935 111.1486 0013369 314.1438  45.8721 15.65432504196295
GSLV R/B
1 54149U 22138AN  26106.75848174  .00001343  00000+0  11373-3 0  9996
2 54149  87.3830 153.6105 0022074  20.1749 340.0350 14.96994988189621
SZ-21 MODULE
1 66515U 25246C   26105.96599745  .00025807  00000+0  19750-3 0  9996
2 66515  41.4747 333.3787 0004470 276.9705  83.0629 15.71515739 23936
